C/2015 V1 (PANSTARRS),e,139.2281,197.1523,179.6522,2095,0.0000103,0.99795935,0.0000,12/16.4655/2017,2000,g  6.5,4.0
# From MPC112390
C/2015 V2 (Johnson),h,06/11.1560/2017,49.8105,69.9868,164.9798,1.001729,1.647759,2000,5.0,4.0
# From MPC115881
C/2015 VL62 (Lemmon-Yeung-PANSTARRS),h,08/28.0157/2017,165.8220,95.1715,128.9514,1.001685,2.723594,2000,8.0,4.0
# From MPC101098
P/2015 W2 (Catalina),e,11.6079,294.2029,117.5022,7.292019,0.0500533,0.63475643,118.6487,03/30.0/2022,2000,g 13.0,4.0
# From MPEC 2021-N06
P/2015 X1 (PANSTARRS),e,12.1526,161.7588,218.7935,3.636953,0.1421011,0.41936819,337.1511,03/30.0/2022,2000,g 16.0,4.0
# From MPEC 2021-P47
C/2015 XY1 (Lemmon),h,04/26.2665/2018,148.8519,281.5961,196.1598,1.000775,7.922973,2000,5.5,4.0
# From MPC 97498
P/2015 X3 (PANSTARRS),e,24.3998,77.2805,306.7129,5.006356,0.0879876,0.43969191,213.2292,03/30.0/2022,2000,g 15.0,4.0
# From MPC119995
C/2015 X5 (PANSTARRS),h,12/27.9311/2017,124.3118,122.3290,27.5764,1.000111,6.794553,2000,7.5,4.0
# From MPC115881
P/2015 X6 (PANSTARRS),e,4.5645,106.9402,329.8126,2.753150,0.2157541,0.17283708,114.1285,03/30.0/2022,2000,g 16.0,4.0
# From MPEC 2021-P47
C/2016 A1 (PANSTARRS),e,121.2083,128.1922,10.1388,92615,0.0000000,0.99994258,0.0000,11/21.4192/2017,2000,g  6.0,4.0
# From MPC100282
P/2016 A2 (Christensen),e,26.4030,291.6176,141.3282,4.753203,0.0951096,0.27062298,235.9786,03/30.0/2022,2000,g 11.5,4.0
# From MPC115881
P/2016 A3 (PANSTARRS),e,8.5103,187.2351,340.9873,7.884483,0.0445189,0.38619328,80.0384,03/30.0/2022,2000,g 10.0,4.0
# From MPC102098
P/2016 A7 (PANSTARRS),e,16.6058,221.4971,352.5776,5.034064,0.0872622,0.56449687,194.4532,03/30.0/2022,2000,g 16.0,4.0
# From MPC109143
P/2016 BA14 (PANSTARRS),e,18.8948,180.5200,351.9159,3.025437,0.1872932,0.66507852,53.5079,03/30.0/2022,2000,g 21.0,4.0
# From MPC110494
C/2016 E1 (PANSTARRS),h,06/03.9299/2017,131.8708,233.1241,47.4576,1.006225,8.174264,2000,6.5,4.0
# From MPEC 2021-P47
P/2016 G1 (PANSTARRS),e,10.9714,204.0229,111.1119,2.582269,0.2375209,0.21096543,88.6299,03/30.0/2022,2000,g 14.0,4.0
# From MPEC 2017-D91
P/2016 J1-A (PANSTARRS),e,14.3288,199.8115,46.9912,3.172063,0.1744582,0.22773179,6.5046,03/30.0/2022,2000,g 16.5,4.0
# From MPEC 2017-A77
P/2016 J1-B (PANSTARRS),e,14.3315,199.8164,46.8822,3.171693,0.1744887,0.22758242,6.6436,03/30.0/2022,2000,g 17.0,4.0
# From MPEC 2022-ED3
C/2016 M1 (PANSTARRS),e,90.9324,92.2386,209.9331,75840,0.0000000,0.99997081,0.0000,08/10.5483/2018,2000,g  5.0,4.0
# From MPEC 2021-N06
C/2016 N4 (MASTER),e,72.6508,353.9903,55.9524,4805,0.0000030,0.99933476,0.0000,09/17.3102/2017,2000,g  8.5,4.0
# From MPEC 2021-P47
C/2016 N6 (PANSTARRS),e,105.8466,298.9604,162.6351,1101,0.0000270,0.99758303,0.0000,07/17.7421/2018,2000,g  7.0,4.0
# From MPC102099
P/2016 P1 (PANSTARRS),e,24.4538,319.5669,270.1840,3.194832,0.1725965,0.28924116,50.4776,03/30.0/2022,2000,g 15.0,4.0
# From MPEC 2022-ED3
C/2016 Q2 (PANSTARRS),h,05/12.1514/2021,109.3876,322.2991,84.5458,1.001916,7.081948,2000,6.0,4.0
# From MPC102955
C/2016 Q4 (Kowalski),e,7.2511,271.2966,99.5617,16.98803,0.0140763,0.58259039,21.3965,03/30.0/2022,2000,g  7.0,4.0
# From MPEC 2021-N06
C/2016 R2 (PANSTARRS),e,58.2802,80.5351,33.1134,479.6566,0.0000938,0.99458143,0.0000,05/09.0000/2018,2000,g  7.0,4.0
# From MPC109144
P/2016 R4 (Gibbs),e,10.8777,168.2620,174.0881,5.332088,0.0800494,0.47640042,166.1478,03/30.0/2022,2000,g 12.5,4.0
# From MPC105543
P/2016 S1 (PANSTARRS),e,94.7106,227.6092,273.2741,8.277499,0.0413862,0.71005285,76.1468,03/30.0/2022,2000,g 12.0,4.0
# From MPC105238
C/2016 T1 (Matheny),e,129.8508,56.4263,137.5431,126.5377,0.0006924,0.98178449,0.0000,02/01.8664/2017,2000,g 14.5,4.0
# From MPC110082
C/2016 T3 (PANSTARRS),e,22.7019,271.6850,194.5855,129.2595,0.0006707,0.97956677,0.0000,09/06.6256/2017,2000,g 10.5,4.0
# From MPC106345
C/2016 VZ18 (PANSTARRS),e,24.0145,98.9329,36.3338,157.0408,0.0005008,0.99419180,0.0000,03/04.8663/2017,2000,g 19.5,4.0
# From MPC106345
P/2016 WM48 (Lemmon),e,117.5264,59.9179,36.1125,8.166486,0.0422329,0.78356702,78.5856,03/30.0/2022,2000,g 15.0,4.0
# From MPEC 2021-P47
C/2016 X1 (Lemmon),e,26.4544,256.3718,224.4751,1266,0.0000219,0.99403075,0.0000,04/27.8784/2019,2000,g  6.0,4.0
# From MPC108594
C/2017 A1 (PANSTARRS),e,49.8126,121.0171,1.9408,75.03151,0.0015165,0.96954442,2.6979,03/30.0/2022,2000,g 13.0,4.0
# From MPC108594
C/2017 A3 (Elenin),e,98.5029,97.8514,303.9265,43.34283,0.0034540,0.91139380,6.5074,03/30.0/2022,2000,g  9.5,4.0
# From MPC114598
C/2017 AB5 (PANSTARRS),e,32.4560,42.6099,78.2935,2321,0.0000088,0.99603374,0.0000,02/14.4962/2018,2000,g  5.5,4.0
# From MPEC 2022-A21
C/2017 B3 (LINEAR),h,02/02.0909/2019,54.1605,2.1761,284.8177,1.000860,3.926355,2000,6.0,4.0
# From MPC103847
P/2017 B4 (PANSTARRS),e,20.0584,121.4578,11.0197,4.410520,0.1064068,0.36495152,359.9130,01/05.0/2017,2000,g 14.5,4.0
# From MPC104793
P/2017 D1 (Fuls),e,20.7606,82.1824,7.9716,4.828847,0.0928836,0.43650323,195.6310,03/30.0/2022,2000,g 14.0,4.0
# From MPC112391
C/2017 D2 (Barros),e,31.2577,330.9511,334.6311,12137,0.0000007,0.99979422,0.0000,07/14.6659/2017,2000,g 11.0,4.0
# From MPC114598
C/2017 D3 (ATLAS),h,04/27.4510/2017,125.5909,186.7162,340.8094,1.002060,4.965677,2000,8.0,4.0
# From MPC110495
P/2017 D4 (PANSTARRS),e,10.5393,264.9387,212.1867,7.554152,0.0474707,0.62854000,96.4758,03/30.0/2022,2000,g 13.0,4.0
# From MPC106346
C/2017 E1 (Borisov),h,04/10.4113/2017,14.5709,142.5723,152.7861,1.003247,0.907048,2000,14.0,4.0
# From MPEC 2021-P47
C/2017 E3 (PANSTARRS),h,06/07.3026/2017,70.6605,220.7925,334.4614,1.005903,5.936198,2000,6.5,4.0
# From MPC105239
C/2017 E4 (Lovejoy),h,04/23.3339/2017,87.9751,222.7905,87.0888,1.001484,0.491962,2000,17.0,4.0
# From MPC111769
C/2017 F1 (Lemmon),h,11/28.8250/2017,146.4611,158.7883,64.7237,1.002033,4.497712,2000,10.5,4.0
# From MPC114598
C/2017 F2 (PANSTARRS),h,11/26.1344/2017,42.5479,38.6958,134.9455,1.002255,6.927765,2000,7.5,4.0
# From MPC104794
P/2017 G1 (PANSTARRS),e,4.7793,249.6493,224.4272,7.279589,0.0501815,0.65320323,108.5521,03/30.0/2022,2000,g 13.5,4.0
# From MPC108595
P/2017 G2 (PANSTARRS),e,47.9528,79.8083,105.4802,8.056748,0.0430987,0.64761830,75.5981,03/30.0/2022,2000,g 13.0,4.0
# From MPEC 2021-P47
C/2017 G3 (PANSTARRS),e,159.0331,279.4547,73.0216,311.9266,0.0001789,0.99172329,0.0000,04/16.4278/2017,2000,g 14.0,4.0
# From MPC115882
C/2017 K1 (PANSTARRS),h,03/17.9733/2018,154.0205,225.7105,4.4351,1.003353,7.287066,2000,7.0,4.0
# From MPEC 2022-F14
C/2017 K2 (PANSTARRS),h,12/19.6851/2022,87.5595,88.2362,236.1938,1.000742,1.797055,2000,1.5,4.0
# From MPEC 2021-N06
P/2017 K3 (Gasparovic),e,4.2730,354.2874,253.4452,5.584030,0.0746934,0.57960612,131.8600,03/30.0/2022,2000,g 14.5,4.0
# From MPC114598
C/2017 K4 (ATLAS),e,16.6716,298.8939,15.3194,28.66253,0.0064229,0.90728273,9.9013,03/30.0/2022,2000,g 10.0,4.0
# From MPEC 2021-P47
C/2017 K5 (PANSTARRS),h,03/27.2639/2020,82.2390,102.3751,172.0540,1.005504,7.682896,2000,5.0,4.0
# From MPC114599
C/2017 K6 (Jacques),e,57.2292,84.9504,303.7762,1165,0.0000248,0.99828759,0.0000,01/03.8518/2018,2000,g 11.0,4.0
# From MPEC 2021-P47
C/2017 M3 (PANSTARRS),e,77.5911,7.0394,110.2746,166.8989,0.0004571,0.97213170,0.0000,04/28.3687/2017,2000,g 10.5,4.0
# From MPEC 2021-Y10
C/2017 M4 (ATLAS),h,01/17.9602/2019,105.6464,65.9278,167.6176,1.001393,3.253432,2000,6.0,4.0
# From MPC118841
C/2017 M5 (TOTAS),h,06/04.4593/2018,15.8674,216.2889,92.8324,1.005398,6.000673,2000,6.5,4.0
# From MPC114599
C/2017 O1 (ASASSN),e,39.9681,25.7240,20.8373,369.4395,0.0001388,0.99596296,0.0000,10/15.5609/2017,2000,g 11.0,4.0
# From MPC114599
P/2017 P1 (PANSTARRS),e,7.6915,221.3802,122.5567,7.907069,0.0443283,0.31102041,61.0544,03/30.0/2022,2000,g 10.0,4.0
# From MPC114599
C/2017 P2 (PANSTARRS),e,50.0483,165.4565,132.4769,2514,0.0000078,0.99901654,0.0000,12/06.2419/2017,2000,g 10.0,4.0
# From MPEC 2022-F14
P/2017 R1 (PANSTARRS),e,2.5745,143.6158,178.7215,4.134839,0.1172239,0.19560100,212.5531,03/30.0/2022,2000,g 13.5,4.0
# From MPC108595
C/2017 S2 (PANSTARRS),e,12.6708,62.3422,306.0798,20.62483,0.0105225,0.82480934,17.5983,03/30.0/2022,2000,g 13.0,4.0
# From MPC114599
C/2017 S3 (PANSTARRS),h,08/16.4005/2018,99.2073,171.3105,255.7989,1.000069,0.206414,2000,11.0,4.0
# From MPC109591
C/2017 S6 (Catalina),h,02/26.1450/2018,152.8666,131.0729,134.9356,1.000816,1.549309,2000,12.5,4.0
# From MPC114599
C/2017 S7 (Lemmon),e,124.2245,262.7391,187.5181,6946,0.0000017,0.99890493,0.0000,05/23.8787/2017,2000,g  7.0,4.0
# From MPC114599
P/2017 S8 (PANSTARRS),e,29.8573,191.5257,254.8044,2.779886,0.2126491,0.39106261,323.7864,03/30.0/2022,2000,g 16.0,4.0
# From MPC107050
P/2017 S9 (PANSTARRS),e,14.1439,146.2232,237.6631,3.154335,0.1759310,0.30545675,301.1515,03/30.0/2022,2000,g 17.0,4.0
# From MPC114600
C/2017 T1 (Heinze),e,96.8823,102.4559,97.0053,11420,0.0000008,0.99994876,0.0000,02/20.7633/2018,2000,g 14.5,4.0
# From MPEC 2021-Y10
C/2017 T2 (PANSTARRS),e,57.2383,64.3863,92.9750,1897,0.0000119,0.99914849,0.0000,05/04.8206/2020,2000,g  5.0,4.0
# From MPC114600
C/2017 T3 (ATLAS),e,88.1787,230.1681,246.8197,1183,0.0000242,0.99930317,0.0000,07/18.9102/2018,2000,g 10.0,4.0
# From MPC115882
P/2017 TW13 (Lemmon),e,44.8496,322.2887,119.9269,7.138023,0.0516817,0.70985311,71.2055,03/30.0/2022,2000,g 15.0,2.0
# From MPC114600
C/2017 U2 (Fuls),e,95.3888,149.7091,147.8640,2740,0.0000069,0.99754946,0.0000,08/28.1771/2017,2000,g  9.0,4.0
# From MPC114600
P/2017 U3 (PANSTARRS),e,15.9188,165.1112,296.4939,4.926937,0.0901236,0.09910882,97.4778,03/30.0/2022,2000,g 11.0,4.0
# From MPEC 2021-P47
C/2017 U4 (PANSTARRS),h,09/22.3617/2018,158.2071,245.9252,158.9838,1.000687,7.721017,2000,7.0,4.0
# From MPC114600
C/2017 U5 (PANSTARRS),e,18.9787,163.0865,261.9947,16.89125,0.0141975,0.74444532,22.1763,03/30.0/2022,2000,g 12.0,4.0
# From MPEC 2022-ED3
C/2017 U7 (PANSTARRS),h,09/14.6325/2019,142.5994,276.2507,326.3681,1.000831,6.425902,2000,8.3,2.0
# From MPC114600
